STARLINK-2567           
1 48276U 21036A   22287.12873678  .00005520  00000+0  38904-3 0  9990
2 48276  53.0546 224.7024 0001482  73.9933 286.1219 15.06410827 82106
STARLINK-2569           
1 48277U 21036B   22287.13012753  .00002613  00000+0  19425-3 0  9998
2 48277  53.0546 189.6964 0001161 113.6240 246.4871 15.06400252 82593
STARLINK-2543           
1 48278U 21036C   22286.50398892  .00002788  00000+0  20602-3 0  9992
2 48278  53.0542 207.5682 0001297  98.0963 262.0173 15.06395171 81709
STARLINK-2580           
1 48279U 21036D   22286.49660598  .00006863  00000+0  47917-3 0  9992
2 48279  53.0529 207.5323 0001115  86.2721 273.8395 15.06402628 82283
STARLINK-2565           
1 48280U 21036E   22287.15361308  .00002832  00000+0  20886-3 0  9993
2 48280  53.0538 274.5866 0001393  59.3550 300.7577 15.06409842 81400
STARLINK-2520           
1 48281U 21036F   22286.63574076  .00002341  00000+0  17603-3 0  9992
2 48281  53.0545 256.9044 0001737  51.8315 308.2830 15.06397281 81025
STARLINK-2558           
1 48282U 21036G   22287.19001501  .00001732  00000+0  13513-3 0  9992
2 48282  53.0542 259.4277 0001750  57.8894 302.2265 15.06401145 81629
STARLINK-2516           
1 48283U 21036H   22287.18632902  .00002871  00000+0  21152-3 0  9990
2 48283  53.0532 259.4360 0001653  65.1594 294.9567 15.06405117 81628
STARLINK-2564           
1 48284U 21036J   22287.18264619  .00000771  00000+0  70658-4 0  9990
2 48284  53.0554 259.4526 0001343  80.8237 279.2904 15.06400997 81612
STARLINK-2548           
1 48285U 21036K   22286.64724306  .00000092  00000+0  25073-4 0  9992
2 48285  53.0548 261.8498 0001685  70.1960 289.9211 15.06385769 80959
STARLINK-2547           
1 48286U 21036L   22287.17526730  .00001775  00000+0  13802-3 0  9998
2 48286  53.0531 259.4933 0001483  77.1246 282.9909 15.06405404 81619
STARLINK-2566           
1 48287U 21036M   22287.17158776  .00002778  00000+0  20531-3 0  9991
2 48287  53.0543 259.5096 0001478  67.6685 292.4461 15.06396886 81611
STARLINK-2562           
1 48288U 21036N   22286.63617918  .00001345  00000+0  10916-3 0  9995
2 48288  53.0550 261.8964 0001663  62.5971 297.5187 15.06402580 80954
STARLINK-2545           
1 48289U 21036P   22287.23056750  .00009774  00000+0  67383-3 0  9998
2 48289  53.0549 259.2376 0001679  62.4898 297.6261 15.06418235 81628
STARLINK-2540           
1 48290U 21036Q   22287.16052974  .00001914  00000+0  14732-3 0  9994
2 48290  53.0535 259.5430 0001419  65.8481 294.2657 15.06401423 81618
STARLINK-2555           
1 48291U 21036R   22286.62606794  .00002191  00000+0  16599-3 0  9991
2 48291  53.0545 261.9404 0001860  63.7533 296.3647 15.06393730 80952
STARLINK-2542           
1 48292U 21036S   22286.63714362  .00000671  00000+0  63941-4 0  9999
2 48292  53.0547 262.0762 0001722  57.9049 302.2107 15.06397439 80956
STARLINK-2550           
1 48293U 21036T   22286.81773320  .00002478  00000+0  18518-3 0  9995
2 48293  53.0545 261.0956 0001537  62.4028 297.7117 15.06399518 80983
STARLINK-2533           
1 48294U 21036U   22287.21213005  .00001177  00000+0  97874-4 0  9998
2 48294  53.0545 259.3190 0001587  62.1527 297.9623 15.06398416 81622
STARLINK-2535           
1 48295U 21036V   22287.20843994  .00002074  00000+0  15810-3 0  9990
2 48295  53.0547 259.3441 0001647  51.3855 308.7281 15.06401719 81627
STARLINK-2546           
1 48296U 21036W   22287.20475678  .00000945  00000+0  82333-4 0  9991
2 48296  53.0546 259.3588 0001331  67.5054 292.6076 15.06404628 81624
STARLINK-2544           
1 48297U 21036X   22287.20107106  .00001295  00000+0  10584-3 0  9997
2 48297  53.0563 259.3666 0002117  40.3129 319.8016 15.06401660 81625
STARLINK-2559           
1 48298U 21036Y   22287.19738382  .00000981  00000+0  84759-4 0  9999
2 48298  53.0559 259.3937 0001735  52.6127 307.5020 15.06400622 81627
STARLINK-2557           
1 48299U 21036Z   22287.19369869  .00001920  00000+0  14774-3 0  9993
2 48299  53.0546 259.3917 0001569  72.5000 287.6160 15.06402796 81625
STARLINK-2538           
1 48300U 21036AA  22287.18540851  .00001963  00000+0  15065-3 0  9998
2 48300  53.0538 269.4241 0001635  55.8208 304.2936 15.06400748 81485
STARLINK-2537           
1 48301U 21036AB  22287.18171829  .00001688  00000+0  13218-3 0  9996
2 48301  53.0549 269.4615 0001459  64.6021 295.5119 15.06404200 81479
STARLINK-2556           
1 48302U 21036AC  22287.17804153  .00002148  00000+0  16310-3 0  9997
2 48302  53.0546 269.4636 0001734  57.6631 302.4526 15.06397496 81473
STARLINK-2530           
1 48303U 21036AD  22287.17340620  .00001092  00000+0  92237-4 0  9992
2 48303  53.0556 269.4894 0001762  58.2678 301.8483 15.06397955 81486
STARLINK-2524           
1 48304U 21036AE  22286.44084789  .00001407  00000+0  11338-3 0  9995
2 48304  53.0537 272.7765 0001615  61.3059 298.8092 15.06396515 80789
STARLINK-2519           
1 48305U 21036AF  22287.16603314  .00004623  00000+0  32902-3 0  9990
2 48305  53.0521 269.5258 0001753  62.9647 297.1521 15.06406774 81483
STARLINK-2523           
1 48306U 21036AG  22287.22963529  .00001253  00000+0  10297-3 0  9994
2 48306  53.0557 269.2418 0001803  57.7607 302.3557 15.06403529 81496
STARLINK-2528           
1 48307U 21036AH  22286.69517768  .00002634  00000+0  19569-3 0  9990
2 48307  53.0549 271.6465 0001665  60.7798 299.3358 15.06400441 81414
STARLINK-2532           
1 48308U 21036AJ  22287.22226079 -.00000881  00000+0 -40239-4 0  9996
2 48308  53.0546 269.2712 0001726  42.4925 317.6198 15.06417702 81499
STARLINK-2517           
1 48309U 21036AK  22286.68781493  .00011052  00000+0  75962-3 0  9992
2 48309  53.0526 271.6828 0001806  71.6272 288.4913 15.06403980 81416
STARLINK-2536           
1 48310U 21036AL  22286.28604751  .00001326  00000+0  10789-3 0  9990
2 48310  53.0554 273.4855 0001710  61.0808 299.0353 15.06393328 80768
STARLINK-2534           
1 48311U 21036AM  22286.68043221  .00001985  00000+0  15211-3 0  9990
2 48311  53.0546 271.7005 0001469  69.6799 290.4348 15.06395556 81464
STARLINK-2061           
1 48312U 21036AN  22287.20753910  .00000559  00000+0  56420-4 0  9997
2 48312  53.0550 269.3436 0001921  65.3469 294.7720 15.06389907 81544
STARLINK-2541           
1 48313U 21036AP  22287.20384074  .00002918  00000+0  21472-3 0  9998
2 48313  53.0556 269.3586 0001612  55.5296 304.5845 15.06402784 81540
STARLINK-2549           
1 48314U 21036AQ  22287.26649616  .00003703  00000+0  26733-3 0  9999
2 48314  53.0532 269.0844 0001546  59.9024 300.2118 15.06406439 81550
STARLINK-2506           
1 48315U 21036AR  22287.19551425 -.00008596  00000+0 -55862-3 0  9994
2 48315  53.0538 269.3749 0001409  60.5479 299.5650 15.06415229 81541
STARLINK-2507           
1 48316U 21036AS  22286.66199859  .00001580  00000+0  12495-3 0  9994
2 48316  53.0538 271.7810 0001808  62.4333 297.6839 15.06398542 81468
STARLINK-2513           
1 48317U 21036AT  22287.18909208  .00003416  00000+0  24805-3 0  9998
2 48317  53.0535 269.4151 0001615  66.1182 293.9976 15.06409514 81549
STARLINK-2509           
1 48318U 21036AU  22287.18079040 -.00005047  00000+0 -31981-3 0  9998
2 48318  53.0550 279.4696 0001800  37.7453 322.3662 15.06436122 81390
STARLINK-2512           
1 48319U 21036AV  22287.17617056  .00003726  00000+0  26887-3 0  9992
2 48319  53.0551 279.4797 0001748  57.6608 302.4551 15.06401819 81399
STARLINK-2029           
1 48320U 21036AW  22287.23977779  .00001210  00000+0  10013-3 0  9992
2 48320  53.0528 279.2034 0001705  56.7800 303.3352 15.06401245 81408
STARLINK-2457           
1 48321U 21036AX  22286.50627525  .00007360  00000+0  51240-3 0  9992
2 48321  53.0532 282.4946 0002101  53.0337 307.0845 15.06407920 80658
STARLINK-2477           
1 48322U 21036AY  22287.23240453  .00002569  00000+0  19131-3 0  9994
2 48322  53.0550 279.2340 0001632  60.7525 299.3627 15.06403117 81356
STARLINK-2515           
1 48323U 21036AZ  22286.69795410  .00000234  00000+0  34579-4 0  9993
2 48323  53.0555 281.6274 0001560  80.7401 279.3764 15.06395651 80688
STARLINK-2527           
1 48324U 21036BA  22287.15773860 -.00014783  00000+0 -97295-3 0  9990
2 48324  53.0561 279.5458 0000679  31.4014 328.7016 15.06500034 81345
STARLINK-2495           
1 48325U 21036BB  22287.15500099  .00000985  00000+0  85028-4 0  9992
2 48325  53.0535 279.5870 0001698  60.6412 299.4747 15.06396743 81348
STARLINK-2498           
1 48326U 21036BC  22287.21765786  .00000496  00000+0  52201-4 0  9990
2 48326  53.0551 279.3020 0001722  66.8348 293.2822 15.06403269 81355
STARLINK-2502           
1 48327U 21036BD  22286.68320123  .00002402  00000+0  18015-3 0  9996
2 48327  53.0545 281.7027 0001719  54.0035 306.1113 15.06396461 80688
STARLINK-2504           
1 48328U 21036BE  22286.41318661 -.00000326  00000+0 -30108-5 0  9996
2 48328  53.0541 282.9089 0001629  72.8708 287.2460 15.06392210 80649
STARLINK-2510           
1 48329U 21036BF  22286.41043858  .00001324  00000+0  10781-3 0  9990
2 48329  53.0547 282.9198 0002059  42.5650 317.5499 15.06397466 80642
STARLINK-2501           
1 48330U 21036BG  22287.20291910  .00002829  00000+0  20871-3 0  9996
2 48330  53.0547 279.3662 0001787  53.8484 306.2670 15.06402880 81359
STARLINK-2514           
1 48331U 21036BH  22287.19923350  .00003193  00000+0  23313-3 0  9994
2 48331  53.0540 279.3810 0002211  50.7522 309.3663 15.06403339 81356
STARLINK-2511           
1 48332U 21036BJ  22287.19828886  .00000989  00000+0  85288-4 0  9993
2 48332  53.0536 279.3659 0002231  31.6864 328.4259 15.06392090 81356
STARLINK-2518           
1 48333U 21036BK  22287.19185963  .00004458  00000+0  31794-3 0  9993
2 48333  53.0557 279.4067 0002162  48.4747 311.6427 15.06409274 81357
STARLINK-2470           
1 48334U 21036BL  22287.18817369  .00003599  00000+0  26036-3 0  9993
2 48334  53.0538 279.4141 0001664  71.1356 288.9813 15.06405899 81359
STARLINK-2441           
1 48335U 21036BM  22287.25083322  .00002221  00000+0  16793-3 0  9996
2 48335  53.0549 279.1505 0001836  56.2718 303.8446 15.06400653 81363
